MEAN_MOTION;ECCENTRICITY;INCLINATION;RA_OF_ASC_NODE;ARG_OF_PERICENTER;MEAN_ANOMALY;BSTAR;MEAN_MOTION_DOT;MEAN_MOTION_DDOT;TYPE
12.05260594;0.0014402;82.9542;86.1388;358.2123;63.283;-0.0013048;-1.03E-6;0;Amateur
12.05260494;0.0014386;82.9542;85.9061;357.3316;119.2771;-0.0012803;-1.01E-6;0;Amateur
12.05260272;0.0014348;82.9542;85.3638;355.3093;124.2163;-0.0012416;-9.8E-7;0;Amateur
12.05260031;0.0014317;82.9542;84.868;353.4527;118.3111;-0.0012868;-1.01E-6;0;Amateur
12.05259919;0.0014297;82.9542;84.6069;352.4718;41.1638;-0.0013145;-1.04E-6;0;Amateur
12.05259794;0.001428;82.9542;84.3208;351.4011;162.2906;-0.0013442;-1.06E-6;0;Amateur
12.05259227;0.0014218;82.954;83.4786;348.1777;40.6103;-0.0016096;-1.29E-6;0;Amateur
12.05259139;0.0014224;82.9542;83.1967;347.3893;128.3423;-0.0015377;-1.23E-6;0;Amateur
12.05258993;0.001418;82.9544;82.6547;345.2377;131.9262;-0.0016546;-1.33E-6;0;Amateur
12.05258863;0.0014155;82.9545;82.3454;344.057;78.3823;-0.0016709;-1.34E-6;0;Amateur
12.05258689;0.0014128;82.9545;81.9766;342.613;139.8265;-0.0016684;-1.34E-6;0;Amateur
12.05258517;0.0014104;82.9545;81.5709;341.0716;135.7201;-0.0016327;-1.31E-6;0;Amateur
12.05258257;0.0014069;82.9546;81.0287;339.0141;139.8164;-0.001581;-1.27E-6;0;Amateur
12.05258162;0.0014057;82.9546;80.8932;338.4583;139.9329;-0.0015948;-1.28E-6;0;Amateur
12.05257867;0.0014027;82.9547;80.3514;336.4052;141.4445;-0.0015493;-1.24E-6;0;Amateur
12.05257645;0.0013992;82.9547;79.8927;334.636;199.4631;-0.0014928;-1.19E-6;0;Amateur
12.05257591;0.0013984;82.9547;79.8094;334.3199;143.4393;-0.0014809;-1.18E-6;0;Amateur
12.05257444;0.0013957;82.9544;79.4032;332.749;144.3075;-0.0015274;-1.22E-6;0;Amateur
12.05257269;0.0013938;82.9548;79.1434;331.8124;55.7934;-0.001393;-1.11E-6;0;Amateur
12.05257174;0.0013916;82.9546;78.8616;330.6685;145.1079;-0.0015228;-1.22E-6;0;Amateur
12.05257057;0.0013899;82.9548;78.7257;330.2087;147.3714;-0.0013659;-1.08E-6;0;Amateur
12.05256764;0.0013856;82.9548;78.0567;327.5936;85.0512;-0.0015349;-1.23E-6;0;Amateur
12.05256536;0.0013819;82.955;77.5146;325.5766;87.3912;-0.0013639;-1.08E-6;0;Amateur
12.05256431;0.0013799;82.955;77.2355;324.5016;154.4089;-0.0013548;-1.07E-6;0;Amateur
12.05256316;0.001378;82.9551;76.9728;323.4908;89.5363;-0.0013901;-1.1E-6;0;Amateur
12.052562;0.0013761;82.9552;76.6936;322.4271;156.9127;-0.0014049;-1.12E-6;0;Amateur
12.05256089;0.0013741;82.9552;76.431;321.4051;91.5953;-0.0014369;-1.14E-6;0;Amateur
12.05255829;0.0013706;82.9553;75.8893;319.3013;93.4334;-0.0015199;-1.21E-6;0;Amateur
12.05255582;0.0013672;82.9555;75.3474;317.2095;95.9486;-0.0015648;-1.25E-6;0;Amateur
12.05255582;0.0013672;82.9555;75.3474;317.2095;95.9486;-0.0015648;-1.25E-6;0;Amateur
12.05255448;0.001366;82.9557;75.0684;316.1439;162.4733;-0.0015858;-1.27E-6;0;Amateur
12.05255321;0.001364;82.9557;74.8057;315.1373;97.6293;-0.0016003;-1.28E-6;0;Amateur
12.05255157;0.0013623;82.9557;74.4755;313.8284;212.2622;-0.0016066;-1.29E-6;0;Amateur
12.05255058;0.0013605;82.9558;74.2639;313.024;99.9149;-0.0015928;-1.28E-6;0;Amateur
12.05255029;0.0013601;82.9558;74.2175;312.8414;110.0901;-0.001601;-1.28E-6;0;Amateur
12.05254798;0.001357;82.956;73.7221;310.9019;102.2627;-0.0015454;-1.24E-6;0;Amateur
12.05254579;0.0013536;82.9561;73.1804;308.7813;104.0087;-0.001426;-1.13E-6;0;Amateur
12.05254456;0.0013522;82.9562;72.901;307.6817;172.9417;-0.0013679;-1.08E-6;0;Amateur
12.05254352;0.0013505;82.9562;72.6387;306.6442;106.0824;-0.0013141;-1.04E-6;0;Amateur
12.05254135;0.0013471;82.9563;72.097;304.5068;108.3636;-0.0012034;-9.4E-7;0;Amateur
12.05253942;0.0013436;82.9565;71.5552;302.3589;110.5927;-0.0011047;-8.6E-7;0;Amateur
12.05253914;0.0013433;82.9565;71.5089;302.1803;120.62;-0.0011134;-8.7E-7;0;Amateur
12.05253764;0.0013408;82.9567;71.0135;300.2079;112.8196;-0.0010318;-8.0E-7;0;Amateur
12.0525358;0.0013382;82.9568;70.4719;298.047;115.0518;-0.0010231;-7.9E-7;0;Amateur
12.0525347;0.0013364;82.957;70.1448;296.7467;205.0609;-0.0010332;-8.0E-7;0;Amateur
12.05253395;0.0013348;82.957;69.9302;295.8907;117.5168;-0.0010569;-8.2E-7;0;Amateur
12.05253199;0.001333;82.9572;69.3887;293.7463;119.4862;-0.0011335;-8.8E-7;0;Amateur
12.05252995;0.0013296;82.9574;68.847;291.5746;121.6557;-0.0012051;-9.4E-7;0;Amateur
12.05252802;0.0013272;82.9576;68.3052;289.3806;125.2277;-0.0012595;-9.9E-7;0;Amateur
12.05252688;0.0013263;82.9577;68.0259;288.2492;194.0273;-0.0012842;-1.01E-6;0;Amateur
12.05252566;0.0013245;82.9578;67.7172;287.0129;137.6613;-0.0012991;-1.03E-6;0;Amateur
12.05252375;0.0013224;82.9579;67.2222;285.0175;127.9336;-0.0012781;-1.01E-6;0;Amateur
12.05252124;0.0013188;82.9581;66.6341;282.6469;140.9167;-0.0012377;-9.7E-7;0;Amateur
12.05252088;0.0013182;82.9581;66.586;282.439;165.0509;-0.0012407;-9.7E-7;0;Amateur
12.052519;0.0013161;82.9583;66.0925;280.4282;143.2314;-0.0011659;-9.1E-7;0;Amateur
12.05251729;0.0013138;82.9584;65.551;278.224;145.2214;-0.0010279;-7.9E-7;0;Amateur
12.0525165;0.0013133;82.9585;65.3182;277.2916;203.0233;-0.00097606;-7.5E-7;0;Amateur
12.05251552;0.0013121;82.9586;65.0095;276.0266;146.7978;-0.00092427;-7.0E-7;0;Amateur
12.05251455;0.0013112;82.9587;64.686;274.7169;208.8784;-0.00085595;-6.4E-7;0;Amateur
12.05251348;0.0013101;82.9588;64.1448;272.5178;209.0351;-0.0007311;-5.4E-7;0;Amateur
12.05251309;0.0013099;82.9588;63.9728;271.823;141.8224;-0.00073033;-5.4E-7;0;Amateur
12.05251296;0.0013101;82.9589;63.9264;271.634;152.2939;-0.00073201;-5.4E-7;0;Amateur
12.0525117;0.0013087;82.959;63.3848;269.4382;155.6233;-0.00071193;-5.2E-7;0;Amateur
12.05251;0.0013076;82.9591;62.8435;267.2207;156.2595;-0.00078858;-5.9E-7;0;Amateur
12.05251;0.0013076;82.9591;62.8435;267.2207;156.2595;-0.00078858;-5.9E-7;0;Amateur
12.0525085;0.001306;82.9593;62.302;265.0122;158.765;-0.00084663;-6.4E-7;0;Amateur
12.05250717;0.0013044;82.9594;61.7606;262.7933;160.7542;-0.00088145;-6.7E-7;0;Amateur
12.05250674;0.0013041;82.9595;61.6169;262.2173;227.7735;-0.00087639;-6.6E-7;0;Amateur
12.05250572;0.0013031;82.9596;61.2192;260.5814;163.0923;-0.00091722;-7.0E-7;0;Amateur
12.05250411;0.0013021;82.9597;60.6773;258.2928;168.8588;-0.00093956;-7.2E-7;0;Amateur
12.0525036;0.0013019;82.9598;60.4454;257.3501;219.9716;-0.0009055;-6.9E-7;0;Amateur
12.05250273;0.0013011;82.9598;60.1361;256.0667;168.9707;-0.00089866;-6.8E-7;0;Amateur
12.05250204;0.001301;82.9599;59.9035;255.1157;225.7439;-0.00088422;-6.7E-7;0;Amateur
12.05250121;0.0013006;82.9599;59.5948;253.8481;170.4963;-0.00085844;-6.5E-7;0;Amateur
12.05250133;0.0013033;82.9596;59.3193;252.7281;210.3324;-0.00070812;-5.2E-7;0;Amateur
12.05250067;0.0013029;82.9596;59.0535;251.6334;172.8537;-0.00070403;-5.1E-7;0;Amateur
12.0524994;0.001303;82.9597;58.512;249.4308;175.3037;-0.00068701;-5.0E-7;0;Amateur
12.05249874;0.0013029;82.9597;58.189;248.1108;233.8913;-0.00065508;-4.7E-7;0;Amateur
12.05249848;0.0013033;82.9598;57.9705;247.2176;178.1998;-0.00061757;-4.4E-7;0;Amateur
12.05249673;0.0013005;82.9602;57.429;244.9757;180.3607;-0.00041713;-2.7E-7;0;Amateur
12.05249635;0.0013044;82.96;56.8877;242.8049;182.6892;-0.00055383;-3.8E-7;0;Amateur
12.05249518;0.0013023;82.9603;56.4372;240.9488;179.1102;-0.00032163;-1.8E-7;0;Amateur
12.0524946;0.0013037;82.9605;55.8048;238.3674;187.3699;-0.00031763;-1.8E-7;0;Amateur
12.05249444;0.0013041;82.9605;55.6182;237.6058;236.9749;-0.00030913;-1.7E-7;0;Amateur
12.05249412;0.0013045;82.9605;55.4821;237.0372;243.9813;-0.00034249;-2.0E-7;0;Amateur
12.05249382;0.0013046;82.9605;55.2637;236.1271;187.369;-0.00037969;-2.3E-7;0;Amateur
12.0524936;0.0013077;82.9603;55.0309;235.193;245.6858;-0.00040561;-2.6E-7;0;Amateur
12.05249313;0.0013082;82.9603;54.7223;233.9143;189.713;-0.00039927;-2.5E-7;0;Amateur
12.0524929;0.0013087;82.9603;54.4896;232.936;246.8637;-0.00037343;-2.3E-7;0;Amateur
12.05249264;0.001307;82.9606;54.1807;231.6267;193.0784;-0.00043783;-2.8E-7;0;Amateur
12.05249215;0.0013078;82.9607;53.9479;230.6954;251.8067;-0.00047182;-3.1E-7;0;Amateur
12.05249182;0.0013115;82.9603;53.4065;228.5327;253.6026;-0.00029988;-1.7E-7;0;Amateur
12.05249144;0.0013132;82.9603;52.9109;226.5049;250.0403;-0.00026211;-1.3E-7;0;Amateur
12.0524905;0.0013123;82.9608;52.5564;225.0099;200.171;-0.00038495;-2.4E-7;0;Amateur
12.05249025;0.0013143;82.9608;52.0148;222.7799;203.9576;-0.00024346;-1.2E-7;0;Amateur
12.05248998;0.001315;82.9608;51.8233;222.0053;292.2298;-0.00022119;-1.0E-7;0;Amateur
12.05248993;0.0013165;82.9608;51.4731;220.5654;208.1745;-0.00013113;-2.0E-8;0;Amateur
12.05249018;0.001319;82.9607;50.9322;218.3666;206.352;4.9658E-5;1.4E-7;0;Amateur
12.05248999;0.0013199;82.9607;50.6998;217.4355;261.6926;6.127E-5;1.5E-7;0;Amateur
12.05249032;0.0013208;82.9607;50.3904;216.1798;212.1067;0.00014791;2.2E-7;0;Amateur
12.05249038;0.0013234;82.9607;49.8491;214.0489;213.7034;0.00022037;2.8E-7;0;Amateur
12.0524906;0.0013245;82.9607;49.6169;213.1495;267.5004;0.00025384;3.1E-7;0;Amateur
12.05249074;0.0013271;82.9607;49.1165;211.1664;303.1209;0.00024828;3.1E-7;0;Amateur
12.05249073;0.0013292;82.9607;48.7663;209.7248;218.7438;0.00019528;2.6E-7;0;Amateur
12.05249106;0.001332;82.9607;48.2252;207.5344;218.8257;0.00016956;2.4E-7;0;Amateur
12.05249105;0.0013335;82.9607;47.9928;206.597;274.3364;0.00014125;2.1E-7;0;Amateur
12.0524912;0.0013348;82.9606;47.684;205.3519;220.6284;0.0001177;1.9E-7;0;Amateur
12.05249133;0.0013381;82.9607;47.1423;203.2048;224.7589;6.2515E-5;1.5E-7;0;Amateur
12.0524915;0.0013415;82.9606;46.6012;201.0752;224.0865;3.646E-5;1.2E-7;0;Amateur
12.0524923;0.0013451;82.9606;46.1032;199.0753;239.225;0.0001329;2.1E-7;0;Amateur
12.05249321;0.0013493;82.9605;45.4712;196.6497;244.7045;0.00028175;3.4E-7;0;Amateur
12.05249335;0.0013501;82.9605;45.3246;196.089;334.3169;0.00029796;3.5E-7;0;Amateur
12.05249392;0.0013524;82.9605;45.0233;194.9377;219.6942;0.00037348;4.1E-7;0;Amateur
12.05249408;0.0013541;82.9604;44.7443;193.8712;286.6514;0.00040115;4.4E-7;0;Amateur
12.0524946;0.0013599;82.9603;43.8937;190.5071;236.94;0.00046835;5.0E-7;0;Amateur
12.0524958;0.0013654;82.9597;43.3521;188.4907;237.6519;0.00037635;4.2E-7;0;Amateur
